GLOBALSTAR M067         
1 32263U 07048A   25321.74930162 -.00000070  00000+0  20410-3 0  9997
2 32263  51.9736 306.5925 0001129 329.1088 202.5052 12.40682007828546
GLOBALSTAR M070         
1 32264U 07048B   25321.60962561 -.00000068  00000+0  20186-3 0  9998
2 32264  51.9777  21.1119 0000602 125.5677  38.7176 12.62325743833046
GLOBALSTAR M066         
1 32265U 07048C   25321.47905685 -.00000092  00000+0  17296-4 0  9994
2 32265  51.9608 305.6649 0004862 323.7540 209.9499 12.30379174834167
GLOBALSTAR M068         
1 32266U 07048D   25321.69381604 -.00000028  00000+0  42318-3 0  9999
2 32266  51.9868 194.3137 0001961  94.6333 300.1685 12.62833564836955
GLOBALSTAR M079         
1 37188U 10054A   25321.65836719 -.00000091  00000+0  68596-4 0  9993
2 37188  52.0063  32.5946 0000298 151.3675  13.6796 12.62268539695838
GLOBALSTAR M074         
1 37189U 10054B   25321.68538627 -.00000085  00000+0  10528-3 0  9998
2 37189  52.0040  31.8103 0000439 104.6121  63.3903 12.62273198696442
GLOBALSTAR M076         
1 37190U 10054C   25321.62905808 -.00000094  00000+0  54161-4 0  9995
2 37190  52.0050  32.1684 0000260  94.8523  55.5909 12.62267402696159
GLOBALSTAR M077         
1 37191U 10054D   25321.81155036 -.00000075  00000+0  13548-3 0  9999
2 37191  52.0124 357.5574 0008934  91.8356  79.4125 11.95391600696407
